{
    "links": {
        "self": "http://www.neowsapp.com/rest/v1/neo/3788024?api_key=iIulBulltgU6a56xZRHN4H3l9WmuAYTsLGpBGhQ2"
    },
    "id": "3788024",
    "neo_reference_id": "3788024",
    "name": "(2017 UK5)",
    "designation": "2017 UK5",
    "nasa_jpl_url": "http://ssd.jpl.nasa.gov/sbdb.cgi?sstr=3788024",
    "absolute_magnitude_h": 25.9,
    "estimated_diameter": {
        "kilometers": {
            "estimated_diameter_min": 0.0175612318,
            "estimated_diameter_max": 0.0392681082
        },
        "meters": {
            "estimated_diameter_min": 17.561231848,
            "estimated_diameter_max": 39.2681081809
        },
        "miles": {
            "estimated_diameter_min": 0.0109120402,
            "estimated_diameter_max": 0.0244000636
        },
        "feet": {
            "estimated_diameter_min": 57.6155918963,
            "estimated_diameter_max": 128.8323800441
        }
    },
    "is_potentially_hazardous_asteroid": false,
    "close_approach_data": [
        {
            "close_approach_date": "2017-10-21",
            "close_approach_date_full": "2017-Oct-21 23:42",
            "epoch_date_close_approach": 1508629320000,
            "relative_velocity": {
                "kilometers_per_second": "7.6515374541",
                "kilometers_per_hour": "27545.534834598",
                "miles_per_hour": "17115.7241309756"
            },
            "miss_distance": {
                "astronomical": "0.0249797558",
                "lunar": "9.7171250062",
                "kilometers": "3736918.260800146",
                "miles": "2322013.3340721748"
            },
            "orbiting_body": "Earth"
        }
    ],
    "orbital_data": {
        "orbit_id": "3",
        "orbit_determination_date": "2017-10-31 06:19:28",
        "first_observation_date": "2017-10-24",
        "last_observation_date": "2017-10-30",
        "data_arc_in_days": 6,
        "observations_used": 49,
        "orbit_uncertainty": "7",
        "minimum_orbit_intersection": ".0237992",
        "jupiter_tisserand_invariant": "3.230",
        "epoch_osculation": "2459000.5",
        "eccentricity": ".5860160756190529",
        "semi_major_axis": "2.457429547137984",
        "inclination": "2.732209839364487",
        "ascending_node_longitude": "36.15808230518279",
        "orbital_period": "1407.084051209296",
        "perihelion_distance": "1.017336327813876",
        "perihelion_argument": "346.2631928275179",
        "aphelion_distance": "3.897522766462091",
        "perihelion_time": "2459450.266856078749",
        "mean_anomaly": "244.9279344405948",
        "mean_motion": ".2558482556110303",
        "equinox": "J2000",
        "orbit_class": {
            "orbit_class_type": "AMO",
            "orbit_class_description": "Near-Earth asteroid orbits similar to that of 1221 Amor",
            "orbit_class_range": "1.017 AU < q (perihelion) < 1.3 AU"
        }
    },
    "is_sentry_object": false
}